[
  {"label":"北京Beijing010","name":"北京","pinyin":"Beijing","zip":"010"},
  {"label":"长春Changchun0431","name":"长春","pinyin":"Changchun","zip":"0431"},
  {"label":"长沙Changsha0731","name":"长沙","pinyin":"Changsha","zip":"0731"},
  {"label":"成都Chengdu028","name":"成都","pinyin":"Chengdu","zip":"028"},
  {"label":"重庆Chongqing023","name":"重庆","pinyin":"Chongqing","zip":"023"},
  {"label":"福州Fuzhou0591","name":"福州","pinyin":"Fuzhou","zip":"0591"},
  {"label":"广州Guangzhou020","name":"广州","pinyin":"Guangzhou","zip":"020"},
  {"label":"贵阳Guiyang0851","name":"贵阳","pinyin":"Guiyang","zip":"0851"},
  {"label":"哈尔滨Haerbin0451","name":"哈尔滨","pinyin":"Haerbin","zip":"0451"},
  {"label":"海口Haikou0898","name":"海口","pinyin":"Haikou","zip":"0898"},
  {"label":"杭州Hangzhou0571","name":"杭州","pinyin":"Hangzhou","zip":"0571"},
  {"label":"合肥Hefei0551","name":"合肥","pinyin":"Hefei","zip":"0551"},
  {"label":"呼和浩特Huhehaote0471","name":"呼和浩特","pinyin":"Huhehaote","zip":"0471"},
  {"label":"济南Jinan0531","name":"济南","pinyin":"Jinan","zip":"0531"},
  {"label":"昆明Kunming0871","name":"昆明","pinyin":"Kunming","zip":"0871"},
  {"label":"兰州Lanzhou0931","name":"兰州","pinyin":"Lanzhou","zip":"0931"},
  {"label":"拉萨Lasa0891","name":"拉萨","pinyin":"Lasa","zip":"0891"},
  {"label":"南昌Nanchang0791","name":"南昌","pinyin":"Nanchang","zip":"0791"},
  {"label":"南京Nanjing025","name":"南京","pinyin":"Nanjing","zip":"025"},
  {"label":"南宁Nanning0771","name":"南宁","pinyin":"Nanning","zip":"0771"},
  {"label":"上海Shanghai021","name":"上海","pinyin":"Shanghai","zip":"021"},
  {"label":"沈阳Shenyang024","name":"沈阳","pinyin":"Shenyang","zip":"024"},
  {"label":"石家庄Shijiazhuang0311","name":"石家庄","pinyin":"Shijiazhuang","zip":"0311"},
  {"label":"太原Taiyuan0351","name":"太原","pinyin":"Taiyuan","zip":"0351"},
  {"label":"天津Tianjin022","name":"天津","pinyin":"Tianjin","zip":"022"},
  {"label":"武汉Wuhan027","name":"武汉","pinyin":"Wuhan","zip":"027"},
  {"label":"乌鲁木齐Wulumuqi0991","name":"乌鲁木齐","pinyin":"Wulumuqi","zip":"0991"},
  {"label":"西安Xian029","name":"西安","pinyin":"Xian","zip":"029"},
  {"label":"西宁Xining0971","name":"西宁","pinyin":"Xining","zip":"0971"},
  {"label":"银川Yinchuan0951","name":"银川","pinyin":"Yinchuan","zip":"0951"},
  {"label":"郑州Zhengzhou0371","name":"郑州","pinyin":"Zhengzhou","zip":"0371"}
]